ORBCOMM FM37            
1 33064U 08031E   26002.70763654  .00004016  00000+0  54349-3 0  9994
2 33064  48.4382 114.5022 0004937 163.4422 349.6048 14.80707306943609
ORBCOMM FM40            
1 33065U 08031F   26002.70552329  .00005320  00000+0  66938-3 0  9996
2 33065  48.4408  95.0324 0006081 179.6320 339.5384 14.83244173943764
VESSELSAT 1             
1 37840U 11058C   26003.10935458  .00000456  00000+0  10381-3 0  9993
2 37840  19.9633 324.1147 0013541 225.3099 134.6202 14.11403990734588
ORBCOMM FM109           
1 40086U 14040A   26003.09966362  .00001694  00000+0  39683-3 0  9990
2 40086  47.0019 151.8735 0002050 200.1265 159.9540 14.58590855610240
ORBCOMM FM107           
1 40087U 14040B   26003.11783557  .00001610  00000+0  37816-3 0  9991
2 40087  47.0039 152.6676 0000798 156.4554 203.6369 14.58665810610326
ORBCOMM FM106           
1 40088U 14040C   26003.16154660  .00002620  00000+0  46156-3 0  9993
2 40088  47.0607 318.4020 0017287 277.0394  82.8531 14.70105455612896
ORBCOMM FM111           
1 40089U 14040D   26003.10953803  .00005105  00000+0  57123-3 0  9991
2 40089  46.9990 141.2141 0027679  70.6834 289.7054 14.87872292619981
ORBCOMM FM104           
1 40090U 14040E   26002.91572384  .00001214  00000+0  30440-3 0  9992
2 40090  47.0032 189.6516 0015816  37.0564 323.1410 14.57047287609748
